DELTA 2 R/B             
1 25876U 99041E   19242.87608829 -.00000043  00000-0  32316-4 0  9994
2 25876  51.7676  21.3051 0530773 213.7728 142.8313 14.04345040 27656
HELIOS 1B               
1 25977U 99064A   19242.90660222  .00000023  00000-0  99837-5 0  9999
2 25977  98.2420  23.3328 0001467 146.3806 213.7499 14.82431511331927
TERRA                   
1 25994U 99068A   19243.08022421  .00000030  00000-0  16683-4 0  9990
2 25994  98.2015 316.5129 0001240 116.2449 243.8886 14.57118253 47880
SL-16 R/B               
1 26070U 00006B   19242.93813921 -.00000280  00000-0 -11857-3 0  9992
2 26070  71.0003  65.8344 0017814 214.4850 145.5119 14.15457562 11382
TITAN 4B R/B            
1 26474U 00047B   19243.13130626  .00000013  00000-0  12108-4 0  9995
2 26474  67.9941 157.5120 0054366 162.9218 197.3770 14.95849951 35754
ENVISAT                 
1 27386U 02009A   19243.08052209 -.00000010  00000-0  10251-4 0  9997
2 27386  98.1474 260.3452 0001361  87.3891 338.3142 14.37955821916746
IDEFIX & ARIANE 42P R/B 
1 27422U 02021B   19242.88284828 -.00000038  00000-0  12988-5 0  9993
2 27422  98.3069 211.7295 0012738  18.7374 341.4275 14.29274987901629
AQUA                    
1 27424U 02022A   19242.90777257  .00000055  00000-0  22198-4 0  9993
2 27424  98.2060 182.6611 0001893 135.3537 298.8076 14.57113104921413
CZ-4B R/B               
1 27432U 02024C   19242.96285163 -.00000032  00000-0  74082-5 0  9996
2 27432  99.0741 235.4047 0049455 278.9978 133.6910 14.14082994892455
MIDORI II (ADEOS-II)    
1 27597U 02056A   19242.86732945  .00000011  00000-0  21652-4 0  9997
2 27597  98.4776 193.4340 0002040 101.7344 258.4066 14.27408896870211
H-2A R/B                
1 27601U 02056E   19242.73231378  .00000019  00000-0  21525-4 0  9990
2 27601  98.2691 287.8689 0073255  66.5490  41.2873 14.31905543872943
CZ-4B R/B               
1 28059U 03049C   19243.22348836  .00000000  00000-0  11934-4 0  9997
2 28059  98.4881 151.4100 0049226 309.8969  49.7903 14.52569751840530
CZ-2C R/B               
1 28222U 04012C   19242.92906944  .00000289  00000-0  21456-4 0  9995
2 28222  97.6324 200.5471 0046174 309.4742 121.6729 15.10136252842030
SL-16 R/B               
1 28353U 04021B   19243.21929848 -.00000231  00000-0 -95949-4 0  9998
2 28353  71.0011 190.1256 0003420  28.9953 331.1358 14.14227320785978
CZ-4B R/B               
1 28415U 04035C   19242.70615549  .00000005  00000-0  48234-5 0  9998
2 28415  97.6561 281.7720 0050101 266.2589  93.2908 15.06722525819709
CZ-2C R/B               
1 28480U 04046B   19242.82810944 -.00000025  00000-0  59991-5 0  9996
2 28480  98.1236 294.7019 0142046   8.6352 119.9301 14.25705570768861
ARIANE 5 R/B            
1 28499U 04049H   19242.92132164  .00000020  00000-0  97373-5 0  9991
2 28499  98.0529 338.8863 0093223 135.0020 325.5204 14.79978650792977
CZ-2D R/B               
1 28738U 05024B   19243.11481963  .00000222  00000-0  16621-4 0  9997
2 28738  97.4109 269.9113 0013651 108.0412 252.2307 15.11855434777406
SUZAKU (ASTRO-EII)      
1 28773U 05025A   19243.06546602  .00000703  00000-0  30191-4 0  9995
2 28773  31.3823 110.7871 0004439 158.8729 201.2102 15.17152919779646
ALOS (DAICHI)           
1 28931U 06002A   19242.99355513  .00000084  00000-0  25153-4 0  9991
2 28931  97.8229 238.4518 0000988  32.4471 327.6798 14.62632282725090
H-2A R/B                
1 28932U 06002B   19242.94392334  .00000411  00000-0  44090-4 0  9994
2 28932  98.2874 212.1598 0088513 194.5479 232.6254 14.92022402737676
AKARI (ASTRO-F)         
1 28939U 06005A   19242.91241269  .00001413  00000-0  41740-4 0  9993
2 28939  98.1932 179.6284 0095211 263.3452  95.6944 15.32806560736217
RESURS-DK 1             
1 29228U 06021A   19242.95199155  .00000019  00000-0  87792-5 0  9992
2 29228  69.9347 210.0380 0005979 220.2396 139.8323 15.02458845728964
GENESIS 1               
1 29252U 06029A   19242.95664226  .00000267  00000-0  23238-4 0  9992
2 29252  64.5138 174.8284 0041374 224.9649 134.8121 15.17811306723856
CZ-4B R/B               
1 29507U 06046C   19243.07840544  .00000519  00000-0  45112-4 0  9992
2 29507  97.7763 260.6955 0049010  64.4354 296.1924 15.00522492701727
CZ-2C R/B               
1 31114U 07010B   19242.72917485  .00000046  00000-0  40167-4 0  9991
2 31114  98.2998 109.5670 0060559  37.9030 322.6388 14.19298134641647
COSMO-SKYMED 1          
1 31598U 07023A   19243.10229300  .00000080  00000-0  16561-4 0  9995
2 31598  97.8918  65.4427 0001412  88.9589 271.1759 14.82155278661674
GENESIS 2               
1 31789U 07028A   19242.87789398  .00000156  00000-0  18220-4 0  9991
2 31789  64.5036 216.0511 0051683 277.6507  81.8748 15.16989458670945
COSMOS 2428             
1 31792U 07029A   19243.20170360 -.00000243  00000-0 -10558-3 0  9991
2 31792  70.9381 164.2715 0006222 148.1414 212.0084 14.12446173627749
SL-16 R/B               
1 31793U 07029B   19242.90646760  .00000298  00000-0  18070-3 0  9995
2 31793  70.9760 138.7926 0002074 281.8834 151.5500 14.14419403628461
KORONAS-FOTON           
1 33504U 09003A   19242.80484542 -.00000016  00000-0 -25713-5 0  9992
2 33504  82.4442 152.9852 0018379 203.7626 156.2760 15.15451400583219
H-2A R/B                
1 38341U 12025E   19243.23110600  .00000108  00000-0  20108-4 0  9995
2 38341  98.4605  15.1378 0056873  88.2217 272.5508 14.83917531394260
CUSAT 2 & FALCON 9 R/B  
1 39271U 13055G   19242.95614148  .00005380  00000-0  13229-3 0  9998
2 39271  80.9663 219.9050 0598111 325.2486  31.0951 14.45585455308586
SL-4 R/B                
1 39679U 14021B   19242.78690295 -.00000231  00000-0  74609-5 0  9994
2 39679  51.6170  20.6809 0172941  15.4515 345.1642 15.06138407295068
ALOS-2                  
1 39766U 14029A   19243.08116906 -.00000009  00000-0  56648-5 0  9991
2 39766  97.9228 338.8581 0001470  89.7234 270.4155 14.79470826284614
SL-27 R/B               
1 40354U 14084B   19242.89668346  .00000488  00000-0  13378-4 0  9997
2 40354  74.7366 271.0647 0039460 248.4831 111.2172 15.39778158263257
ASTRO-H (HITOMI)        
1 41337U 16012A   19242.86854705  .00000192  00000-0  86856-5 0  9999
2 41337  31.0062  58.4201 0012270  69.4684 290.7267 14.98599821193722
SHENZHOU-11 MODULE      
1 41868U 16061G   19242.81456650  .00011936  00000-0  59265-4 0  9995
2 41868  42.7923 149.3831 0008482 225.0732 242.9478 15.81912336159682
HXMT (HUIYAN)           
1 42758U 17034A   19243.10210319 -.00000067  00000-0  95641-5 0  9991
2 42758  43.0160 194.0939 0011507 347.2639 127.3925 15.08635991121869
SAOCOM 1A               
1 43641U 18076A   19243.11049400  .00000023  00000-0  94198-5 0  9999
2 43641  97.8888  68.4002 0001448  87.5300 272.6083 14.82150697 48449
